ONEWEB-0027             
1 45432U 20020J   24019.96556849  .00000076  00000+0  16334-3 0  9992
2 45432  87.9215 180.6911 0001338  77.4219 282.7062 13.17651323190574
ONEWEB-0064             
1 45433U 20020K   24019.94128783  .00000508  00000+0  13967-2 0  9991
2 45433  87.8968 195.8221 0001590  82.5742 277.5567 13.11415385187443
ONEWEB-0018             
1 45434U 20020L   24019.89743920 -.00000494  00000+0 -14311-2 0  9992
2 45434  87.8968 195.8252 0001509  95.7879 264.3421 13.11416086187380
ONEWEB-0083             
1 45435U 20020M   24019.88608832 -.00000323  00000+0 -94691-3 0  9995
2 45435  87.8967 195.8067 0001448  92.9355 267.1939 13.11416070187427
ONEWEB-0095             
1 45436U 20020N   24020.03070406 -.00000002  00000+0 -42046-4 0  9997
2 45436  87.8964 195.8172 0001070  86.8068 273.3183 13.11415816187456
ONEWEB-0092             
1 45437U 20020P   24019.99812582 -.00002226  00000+0 -63194-2 0  9995
2 45437  87.8963 195.7966 0000445  50.6310 309.4857 13.11404818187550
ONEWEB-0085             
1 45438U 20020Q   24020.03218467 -.00000041  00000+0 -15083-3 0  9993
2 45438  87.8968 195.8006 0001653  92.9620 267.1697 13.11414437187456
ONEWEB-0096             
1 45439U 20020R   24019.96401309 -.00001460  00000+0 -41565-2 0  9992
2 45439  87.8969 195.7870 0001620 101.0807 259.0503 13.11406027187439
